ORBCOMM FM115           
1 41186U 15081H   23253.39914418  .00001041  00000+0  25108-3 0  9993
2 41186  46.9984 224.1535 0001438 312.5445  47.5320 14.59876502413336
ORBCOMM FM108           
1 41187U 15081J   23253.72773561  .00000740  00000+0  20475-3 0  9990
2 41187  47.0042 269.3278 0003335 252.1085 107.9436 14.55876489412750
ORBCOMM FM117           
1 41188U 15081K   23254.03597182  .00000770  00000+0  21153-3 0  9996
2 41188  47.0002 266.8457 0004128 258.3780 101.6641 14.55872950412814
ORBCOMM FM116           
1 41189U 15081L   23253.54565995  .00001137  00000+0  29447-3 0  9991
2 41189  47.0041 358.9597 0002269 310.1409  49.9277 14.55865569411507
